IRIDIUM 116             
1 43072U 17083C   24212.83230071  .00000505  00000+0  17324-3 0  9999
2 43072  86.3935 248.8155 0002259  90.0816 270.0638 14.34221529345794
IRIDIUM 130             
1 43073U 17083D   24212.80059316  .00000569  00000+0  19607-3 0  9994
2 43073  86.3943 249.0374 0002324  90.2565 269.8897 14.34219249345739
IRIDIUM 151             
1 43074U 17083E   24212.84499493  .00000135  00000+0  41231-4 0  9991
2 43074  86.3938 248.8525 0002208  96.5438 263.6009 14.34216913345763
IRIDIUM 134             
1 43075U 17083F   24212.81326727  .00000517  00000+0  17768-3 0  9999
2 43075  86.3937 248.8645 0002314  86.9343 273.2117 14.34223072345729
IRIDIUM 137             
1 43076U 17083G   24212.82596208  .00000355  00000+0  11974-3 0  9997
2 43076  86.3939 248.9379 0001773  96.2508 263.8890 14.34217951345791
IRIDIUM 141             
1 43077U 17083H   24212.81962087  .00000266  00000+0  87974-4 0  9994
2 43077  86.3934 248.8104 0002472  95.0416 265.1062 14.34218858345797
IRIDIUM 153             
1 43078U 17083J   24212.91133192  .00000034  00000+0  50860-5 0  9991
2 43078  86.3966 217.2470 0002764  99.3818 260.7690 14.34215409346918
IRIDIUM 131             
1 43079U 17083K   24212.80693565 -.00000337  00000+0 -12753-3 0  9990
2 43079  86.3941 248.9560 0002201  95.4740 264.6707 14.34216155345729
